{"type": "FeatureCollection", "features": [ {"type": "Feature", "properties": {"norad_id": 43207, "name": "BEIDOU-3 M4 (C22)", "group": "beidou", "lat": 15.300494337598067, "lon": -120.8192851633203, "alt_km": 21535.856416280567, "timestamp": "2025-12-03T10:52:57.718364+00:00", "meta": {"OBJECT_NAME": "BEIDOU-3 M4 (C22)", "OBJECT_ID": "2018-018A", "EPOCH": "2025-12-02T03:19:43.852800", "MEAN_MOTION": 1.86230706, "ECCENTRICITY": 0.00040749, "INCLINATION": 56.4768, "RA_OF_ASC_NODE": 69.6557, "ARG_OF_PERICENTER": 15.1369, "MEAN_ANOMALY": 344.8773, "EPHEMERIS_TYPE": 0, "CLASSIFICATION_TYPE": "U", "NORAD_CAT_ID": 43207, "ELEMENT_SET_NO": 999, "REV_AT_EPOCH": 5307, "BSTAR": 0, "MEAN_MOTION_DOT": -4.5e-07, "MEAN_MOTION_DDOT": 0}, "tle": {"line1": "1 43207U 18018A   25336.13870200 -.00000045  00000+0  00000+0 0  9992", "line2": "2 43207  56.4768  69.6557 0004074  15.1369 344.8773  1.86230706 53076"}}, "geometry": {"type": "Point", "coordinates": [-120.8192851633203, 15.300494337598067]}}, {"type": "Feature", "properties": {"norad_id": 43208, "name": "BEIDOU-3 M3 (C21)", "group": "beidou", "lat": 48.05742743479953, "lon": -157.8234793292724, "alt_km": 21538.68265730905, "timestamp": "2025-12-03T10:52:57.718376+00:00", "meta": {"OBJECT_NAME": "BEIDOU-3 M3 (C21)", "OBJECT_ID": "2018-018B", "EPOCH": "2025-12-02T17:48:44.716608", "MEAN_MOTION": 1.86230878, "ECCENTRICITY": 0.0006254, "INCLINATION": 56.4767, "RA_OF_ASC_NODE": 69.6397, "ARG_OF_PERICENTER": 317.6191, "MEAN_ANOMALY": 42.3346, "EPHEMERIS_TYPE": 0, "CLASSIFICATION_TYPE": "U", "NORAD_CAT_ID": 43208, "ELEMENT_SET_NO": 999, "REV_AT_EPOCH": 5308, "BSTAR": 0, "MEAN_MOTION_DOT": -4.7e-07, "MEAN_MOTION_DDOT": 0}, "tle": {"line1": "1 43208U 18018B   25336.74218422 -.00000047  00000+0  00000+0 0  9994", "line2": "2 43208  56.4767  69.6397 0006254 317.6191  42.3346  1.86230878 53080"}}, "geometry": {"type": "Point", "coordinates": [-157.8234793292724, 48.05742743479953]}}, {"type": "Feature", "properties": {"norad_id": 43245, "name": "BEIDOU-3 M9 (C29)", "group": "beidou", "lat": -22.440142099796535, "lon": -70.44750796935261, "alt_km": 21528.82602823924, "timestamp": "2025-12-03T10:52:57.718389+00:00", "meta": {"OBJECT_NAME": "BEIDOU-3 M9 (C29)", "OBJECT_ID": "2018-029A", "EPOCH": "2025-12-01T08:20:14.784576", "MEAN_MOTION": 1.86227904, "ECCENTRICITY": 0.00017985, "INCLINATION": 54.3765, "RA_OF_ASC_NODE": 306.8658, "ARG_OF_PERICENTER": 272.1738, "MEAN_ANOMALY": 87.7976, "EPHEMERIS_TYPE": 0, "CLASSIFICATION_TYPE": "U", "NORAD_CAT_ID": 43245, "ELEMENT_SET_NO": 999, "REV_AT_EPOCH": 5221, "BSTAR": 0, "MEAN_MOTION_DOT": -5.8e-07, "MEAN_MOTION_DDOT": 0}, "tle": {"line1": "1 43245U 18029A   25335.34739334 -.00000058  00000+0  00000+0 0  9994", "line2": "2 43245  54.3765 306.8658 0001798 272.1738  87.7976  1.86227904 52214"}}, "geometry": {"type": "Point", "coordinates": [-70.44750796935261, -22.440142099796535]}}, {"type": "Feature", "properties": {"norad_id": 43246, "name": "BEIDOU-3 M10 (C30)", "group": "beidou", "lat": 12.446578862100782, "lon": -44.098625413072114, "alt_km": 21516.326531489754, "timestamp": "2025-12-03T10:52:57.718401+00:00", "meta": {"OBJECT_NAME": "BEIDOU-3 M10 (C30)", "OBJECT_ID": "2018-029B", "EPOCH": "2025-12-01T06:47:05.876160", "MEAN_MOTION": 1.86228878, "ECCENTRICITY": 0.0003946, "INCLINATION": 54.3738, "RA_OF_ASC_NODE": 306.8948, "ARG_OF_PERICENTER": 359.0854, "MEAN_ANOMALY": 0.9061, "EPHEMERIS_TYPE": 0, "CLASSIFICATION_TYPE": "U", "NORAD_CAT_ID": 43246, "ELEMENT_SET_NO": 999, "REV_AT_EPOCH": 5219, "BSTAR": 0, "MEAN_MOTION_DOT": -5.7e-07, "MEAN_MOTION_DDOT": 0}, "tle": {"line1": "1 43246U 18029B   25335.28270690 -.00000057  00000+0  00000+0 0  9992", "line2": "2 43246  54.3738 306.8948 0003946 359.0854   0.9061  1.86228878 52198"}}, "geometry": {"type": "Point", "coordinates": [-44.098625413072114, 12.446578862100782]}}, {"type": "Feature", "properties": {"norad_id": 43539, "name": "BEIDOU-2 IGSO-7 (C16)", "group": "beidou", "lat": -1.2748814862965423, "lon": -14.360324900796961, "alt_km": 35556.992914108334, "timestamp": "2025-12-03T10:52:57.718412+00:00", "meta": {"OBJECT_NAME": "BEIDOU-2 IGSO-7 (C16)", "OBJECT_ID": "2018-057A", "EPOCH": "2025-12-02T22:52:29.161056", "MEAN_MOTION": 1.0025968, "ECCENTRICITY": 0.0092476, "INCLINATION": 55.1727, "RA_OF_ASC_NODE": 164.7578, "ARG_OF_PERICENTER": 235.1616, "MEAN_ANOMALY": 126.6896, "EPHEMERIS_TYPE": 0, "CLASSIFICATION_TYPE": "U", "NORAD_CAT_ID": 43539, "ELEMENT_SET_NO": 999, "REV_AT_EPOCH": 2716, "BSTAR": 0, "MEAN_MOTION_DOT": -2.1e-07, "MEAN_MOTION_DDOT": 0}, "tle": {"line1": "1 43539U 18057A   25336.95311529 -.00000021  00000+0  00000+0 0  9991", "line2": "2 43539  55.1727 164.7578 0092476 235.1616 126.6896  1.00259680 27168"}}, "geometry": {"type": "Point", "coordinates": [-14.360324900796961, -1.2748814862965423]}}, {"type": "Feature", "properties": {"norad_id": 43581, "name": "BEIDOU-3 M5 (C23)", "group": "beidou", "lat": -34.71016320291845, "lon": 39.09826850296202, "alt_km": 21535.974834548575, "timestamp": "2025-12-03T10:52:57.718424+00:00", "meta": {"OBJECT_NAME": "BEIDOU-3 M5 (C23)", "OBJECT_ID": "2018-062A", "EPOCH": "2025-11-30T23:17:32.661024", "MEAN_MOTION": 1.8622853, "ECCENTRICITY": 0.0002124, "INCLINATION": 54.0891, "RA_OF_ASC_NODE": 189.0442, "ARG_OF_PERICENTER": 349.7703, "MEAN_ANOMALY": 10.3183, "EPHEMERIS_TYPE": 0, "CLASSIFICATION_TYPE": "U", "NORAD_CAT_ID": 43581, "ELEMENT_SET_NO": 999, "REV_AT_EPOCH": 4994, "BSTAR": 0, "MEAN_MOTION_DOT": 1.17e-06, "MEAN_MOTION_DDOT": 0}, "tle": {"line1": "1 43581U 18062A   25334.97051691  .00000117  00000+0  00000+0 0  9990", "line2": "2 43581  54.0891 189.0442 0002124 349.7703  10.3183  1.86228530 49947"}}, "geometry": {"type": "Point", "coordinates": [39.09826850296202, -34.71016320291845]}}, {"type": "Feature", "properties": {"norad_id": 43582, "name": "BEIDOU-3 M6 (C24)", "group": "beidou", "lat": -33.934181075470455, "lon": 159.7769100684258, "alt_km": 21532.012932445632, "timestamp": "2025-12-03T10:52:57.718449+00:00", "meta": {"OBJECT_NAME": "BEIDOU-3 M6 (C24)", "OBJECT_ID": "2018-062B", "EPOCH": "2025-11-29T18:14:01.707936", "MEAN_MOTION": 1.86229617, "ECCENTRICITY": 0.00076529, "INCLINATION": 54.0888, "RA_OF_ASC_NODE": 189.0746, "ARG_OF_PERICENTER": 45.4041, "MEAN_ANOMALY": 314.7474, "EPHEMERIS_TYPE": 0, "CLASSIFICATION_TYPE": "U", "NORAD_CAT_ID": 43582, "ELEMENT_SET_NO": 999, "REV_AT_EPOCH": 4992, "BSTAR": 0, "MEAN_MOTION_DOT": 1.07e-06, "MEAN_MOTION_DDOT": 0}, "tle": {"line1": "1 43582U 18062B   25333.75974199  .00000107  00000+0  00000+0 0  9992", "line2": "2 43582  54.0888 189.0746 0007652  45.4041 314.7474  1.86229617 49926"}}, "geometry": {"type": "Point", "coordinates": [159.7769100684258, -33.934181075470455]}}, {"type": "Feature", "properties": {"norad_id": 43602, "name": "BEIDOU-3 M12 (C26)", "group": "beidou", "lat": -1.4737040932836092, "lon": -173.3772970575335, "alt_km": 21509.935904072605, "timestamp": "2025-12-03T10:52:57.718462+00:00", "meta": {"OBJECT_NAME": "BEIDOU-3 M12 (C26)", "OBJECT_ID": "2018-067A", "EPOCH": "2025-12-02T09:10:25.264704", "MEAN_MOTION": 1.86227619, "ECCENTRICITY": 0.00091452, "INCLINATION": 54.1831, "RA_OF_ASC_NODE": 187.7149, "ARG_OF_PERICENTER": 40.4724, "MEAN_ANOMALY": 319.6904, "EPHEMERIS_TYPE": 0, "CLASSIFICATION_TYPE": "U", "NORAD_CAT_ID": 43602, "ELEMENT_SET_NO": 999, "REV_AT_EPOCH": 4945, "BSTAR": 0, "MEAN_MOTION_DOT": 1.22e-06, "MEAN_MOTION_DDOT": 0}, "tle": {"line1": "1 43602U 18067A   25336.38223686  .00000122  00000+0  00000+0 0  9997", "line2": "2 43602  54.1831 187.7149 0009145  40.4724 319.6904  1.86227619 49452"}}, "geometry": {"type": "Point", "coordinates": [-173.3772970575335, -1.4737040932836092]}}, {"type": "Feature", "properties": {"norad_id": 43603, "name": "BEIDOU-3 M11 (C25)", "group": "beidou", "lat": -54.1149693966079, "lon": 94.29578456691895, "alt_km": 21543.816008042508, "timestamp": "2025-12-03T10:52:57.718475+00:00", "meta": {"OBJECT_NAME": "BEIDOU-3 M11 (C25)", "OBJECT_ID": "2018-067B", "EPOCH": "2025-12-01T23:30:51.046272", "MEAN_MOTION": 1.86227122, "ECCENTRICITY": 0.0005564, "INCLINATION": 54.1806, "RA_OF_ASC_NODE": 187.6926, "ARG_OF_PERICENTER": 35.9792, "MEAN_ANOMALY": 324.1527, "EPHEMERIS_TYPE": 0, "CLASSIFICATION_TYPE": "U", "NORAD_CAT_ID": 43603, "ELEMENT_SET_NO": 999, "REV_AT_EPOCH": 4947, "BSTAR": 0, "MEAN_MOTION_DOT": 1.23e-06, "MEAN_MOTION_DDOT": 0}, "tle": {"line1": "1 43603U 18067B   25335.97975748  .00000123  00000+0  00000+0 0  9996", "line2": "2 43603  54.1806 187.6926 0005564  35.9792 324.1527  1.86227122 49475"}}, "geometry": {"type": "Point", "coordinates": [94.29578456691895, -54.1149693966079]}}, {"type": "Feature", "properties": {"norad_id": 43622, "name": "BEIDOU-3 M13 (C32)", "group": "beidou", "lat": -47.892914259509354, "lon": 21.98543372907918, "alt_km": 21517.93712308884, "timestamp": "2025-12-03T10:52:57.718487+00:00", "meta": {"OBJECT_NAME": "BEIDOU-3 M13 (C32)", "OBJECT_ID": "2018-072A", "EPOCH": "2025-12-01T22:28:14.583360", "MEAN_MOTION": 1.8623073, "ECCENTRICITY": 0.00055911, "INCLINATION": 56.4497, "RA_OF_ASC_NODE": 69.1783, "ARG_OF_PERICENTER": 298.7186, "MEAN_ANOMALY": 61.2282, "EPHEMERIS_TYPE": 0, "CLASSIFICATION_TYPE": "U", "NORAD_CAT_ID": 43622, "ELEMENT_SET_NO": 999, "REV_AT_EPOCH": 4898, "BSTAR": 0, "MEAN_MOTION_DOT": -4.4e-07, "MEAN_MOTION_DDOT": 0}, "tle": {"line1": "1 43622U 18072A   25335.93627990 -.00000044  00000+0  00000+0 0  9995", "line2": "2 43622  56.4497  69.1783 0005591 298.7186  61.2282  1.86230730 48989"}}, "geometry": {"type": "Point", "coordinates": [21.98543372907918, -47.892914259509354]}}]}